{"fetched_at":"2026-03-29T16:36:15Z","count":15609,"tles":[{"name":"HJS-6D","line1":"1 63431U 25067D   26087.88313468  .00007795  00000+0  23643-3 0  9999","line2":"2 63431  54.9882  23.4595 0009791 121.8683 238.3297 15.35078108 55651","category":"Other"}]}