{
  "norad_id": 63431,
  "name": "HJS-6D",
  "history": [
    {
      "epoch": "2026-03-28T21:11:42.836352",
      "apogee_km": 467.3843963466197,
      "perigee_km": 453.9926082480215,
      "latitude_deg": -27.65082869923259,
      "longitude_deg": -112.11907071969472,
      "semi_major_axis_km": 6838.825502297321,
      "eccentricity": 0.0009791,
      "inclination_deg": 54.9882,
      "raan_deg": 23.4595,
      "arg_perigee_deg": 121.8683,
      "mean_anomaly_deg": 238.3297,
      "mean_motion_rev_day": 15.35078108
    }
  ]
}